{"fetched_at": "2026-06-04T18:22:40.345846+00:00", "line1": "1 52200U 22035A   26155.18659543 -.00000131  00000+0 -26428-4 0  9993", "line2": "2 52200  98.4058 163.9556 0001030  94.5919 265.5388 14.42212932218975"}
{"fetched_at": "2026-06-22T01:52:50.572662+00:00", "line1": "1 52200U 22035A   26172.53111140  .00000128  00000+0  51914-4 0  9999", "line2": "2 52200  98.4063 181.0490 0001394 100.8391 259.2956 14.42215888221470"}
{"fetched_at": "2026-06-24T08:25:59.666708+00:00", "line1": "1 52200U 22035A   26173.84929431 -.00000122  00000+0 -23860-4 0  9999", "line2": "2 52200  98.4067 182.3477 0001416 100.8691 259.2658 14.42215040221661"}
{"fetched_at": "2026-06-24T08:26:28.863655+00:00", "line1": "1 52200U 22035A   26172.53111140  .00000128  00000+0  51914-4 0  9999", "line2": "2 52200  98.4063 181.0490 0001394 100.8391 259.2956 14.42215888221470"}
